{"type": "FeatureCollection", "features": [{"type": "Feature", "properties": {"norad_id": 26766, "name": "INTELSAT 10 (IS-10)", "group": "intelsat", "lat": 5.053596398871219, "lon": -154.46075257695773, "alt_km": 36122.67969172991, "timestamp": "2025-12-27T02:10:15.855340+00:00", "meta": {"OBJECT_NAME": "INTELSAT 10 (IS-10)", "OBJECT_ID": "2001-019A", "EPOCH": "2025-12-26T18:36:04.420224", "MEAN_MOTION": 0.99071767, "ECCENTRICITY": 0.0008073, "INCLINATION": 8.6609, "RA_OF_ASC_NODE": 61.0141, "ARG_OF_PERICENTER": 230.0856, "MEAN_ANOMALY": 161.7254, "EPHEMERIS_TYPE": 0, "CLASSIFICATION_TYPE": "U", "NORAD_CAT_ID": 26766, "ELEMENT_SET_NO": 999, "REV_AT_EPOCH": 4387, "BSTAR": 0, "MEAN_MOTION_DOT": 5.8e-07, "MEAN_MOTION_DDOT": 0}, "tle": {"line1": "1 26766U 01019A   25360.77505116  .00000058  00000+0  00000+0 0  9997", "line2": "2 26766   8.6609  61.0141 0008073 230.0856 161.7254  0.99071767 43877"}}, "geometry": {"type": "Point", "coordinates": [-154.46075257695773, 5.053596398871219]}}, {"type": "Feature", "properties": {"norad_id": 26900, "name": "INTELSAT 902 (IS-902)", "group": "intelsat", "lat": 0.43633614980791957, "lon": 78.13827543470653, "alt_km": 35806.48828745516, "timestamp": "2025-12-27T02:10:15.855364+00:00", "meta": {"OBJECT_NAME": "INTELSAT 902 (IS-902)", "OBJECT_ID": "2001-039A", "EPOCH": "2025-12-15T13:09:02.081664", "MEAN_MOTION": 1.0027087, "ECCENTRICITY": 0.00045028, "INCLINATION": 5.6536, "RA_OF_ASC_NODE": 74.0372, "ARG_OF_PERICENTER": 189.6359, "MEAN_ANOMALY": 327.9329, "EPHEMERIS_TYPE": 0, "CLASSIFICATION_TYPE": "U", "NORAD_CAT_ID": 26900, "ELEMENT_SET_NO": 999, "REV_AT_EPOCH": 8885, "BSTAR": 0, "MEAN_MOTION_DOT": -2.65e-06, "MEAN_MOTION_DDOT": 0}, "tle": {"line1": "1 26900U 01039A   25349.54794076 -.00000265  00000+0  00000+0 0  9997", "line2": "2 26900   5.6536  74.0372 0004502 189.6359 327.9329  1.00270870 88858"}}, "geometry": {"type": "Point", "coordinates": [78.13827543470653, 0.43633614980791957]}}, {"type": "Feature", "properties": {"norad_id": 27380, "name": "INTELSAT 904 (IS-904)", "group": "intelsat", "lat": 2.8212219251354194, "lon": 96.78104279120473, "alt_km": 35792.11441177807, "timestamp": "2025-12-27T02:10:15.855381+00:00", "meta": {"OBJECT_NAME": "INTELSAT 904 (IS-904)", "OBJECT_ID": "2002-007A", "EPOCH": "2025-12-26T11:10:18.842304", "MEAN_MOTION": 1.00272441, "ECCENTRICITY": 0.0002084, "INCLINATION": 6.4869, "RA_OF_ASC_NODE": 71.2729, "ARG_OF_PERICENTER": 247.9541, "MEAN_ANOMALY": 272.0829, "EPHEMERIS_TYPE": 0, "CLASSIFICATION_TYPE": "U", "NORAD_CAT_ID": 27380, "ELEMENT_SET_NO": 999, "REV_AT_EPOCH": 5003, "BSTAR": 0, "MEAN_MOTION_DOT": -2.06e-06, "MEAN_MOTION_DDOT": 0}, "tle": {"line1": "1 27380U 02007A   25360.46549586 -.00000206  00000+0  00000+0 0  9999", "line2": "2 27380   6.4869  71.2729 0002084 247.9541 272.0829  1.00272441 50038"}}, "geometry": {"type": "Point", "coordinates": [96.78104279120473, 2.8212219251354194]}}, {"type": "Feature", "properties": {"norad_id": 27426, "name": "DIRECTV 5 (TEMPO 1)", "group": "intelsat", "lat": -3.809270926720502, "lon": 18.383724985170268, "alt_km": 35787.79889053224, "timestamp": "2025-12-27T02:10:15.855394+00:00", "meta": {"OBJECT_NAME": "DIRECTV 5 (TEMPO 1)", "OBJECT_ID": "2002-023A", "EPOCH": "2025-12-26T13:17:03.638976", "MEAN_MOTION": 1.00271439, "ECCENTRICITY": 0.0003446, "INCLINATION": 4.4354, "RA_OF_ASC_NODE": 77.4895, "ARG_OF_PERICENTER": 206.4307, "MEAN_ANOMALY": 260.5228, "EPHEMERIS_TYPE": 0, "CLASSIFICATION_TYPE": "U", "NORAD_CAT_ID": 27426, "ELEMENT_SET_NO": 999, "REV_AT_EPOCH": 8639, "BSTAR": 0, "MEAN_MOTION_DOT": -3.7e-07, "MEAN_MOTION_DDOT": 0}, "tle": {"line1": "1 27426U 02023A   25360.55351434 -.00000037  00000+0  00000+0 0  9993", "line2": "2 27426   4.4354  77.4895 0003446 206.4307 260.5228  1.00271439 86390"}}, "geometry": {"type": "Point", "coordinates": [18.383724985170268, -3.809270926720502]}}, {"type": "Feature", "properties": {"norad_id": 27438, "name": "INTELSAT 905 (IS-905)", "group": "intelsat", "lat": -6.244651630956779, "lon": -8.69052841417979, "alt_km": 35782.64270123179, "timestamp": "2025-12-27T02:10:15.855406+00:00", "meta": {"OBJECT_NAME": "INTELSAT 905 (IS-905)", "OBJECT_ID": "2002-027A", "EPOCH": "2025-12-23T05:41:27.377952", "MEAN_MOTION": 1.00273243, "ECCENTRICITY": 0.00027491, "INCLINATION": 6.3102, "RA_OF_ASC_NODE": 71.9349, "ARG_OF_PERICENTER": 206.5226, "MEAN_ANOMALY": 121.7385, "EPHEMERIS_TYPE": 0, "CLASSIFICATION_TYPE": "U", "NORAD_CAT_ID": 27438, "ELEMENT_SET_NO": 999, "REV_AT_EPOCH": 4959, "BSTAR": 0, "MEAN_MOTION_DOT": 1.12e-06, "MEAN_MOTION_DDOT": 0}, "tle": {"line1": "1 27438U 02027A   25357.23712243  .00000112  00000+0  00000+0 0  9993", "line2": "2 27438   6.3102  71.9349 0002749 206.5226 121.7385  1.00273243 49592"}}, "geometry": {"type": "Point", "coordinates": [-8.69052841417979, -6.244651630956779]}}, {"type": "Feature", "properties": {"norad_id": 27445, "name": "GALAXY 3C (G-3C)", "group": "intelsat", "lat": -2.398787372212891, "lon": 33.57021675542178, "alt_km": 35789.36818862618, "timestamp": "2025-12-27T02:10:15.855436+00:00", "meta": {"OBJECT_NAME": "GALAXY 3C (G-3C)", "OBJECT_ID": "2002-030A", "EPOCH": "2025-12-26T06:43:38.713152", "MEAN_MOTION": 1.00271267, "ECCENTRICITY": 9.7e-05, "INCLINATION": 3.2955, "RA_OF_ASC_NODE": 80.3601, "ARG_OF_PERICENTER": 86.5436, "MEAN_ANOMALY": 294.1805, "EPHEMERIS_TYPE": 0, "CLASSIFICATION_TYPE": "U", "NORAD_CAT_ID": 27445, "ELEMENT_SET_NO": 999, "REV_AT_EPOCH": 4476, "BSTAR": 0, "MEAN_MOTION_DOT": -1.32e-06, "MEAN_MOTION_DDOT": 0}, "tle": {"line1": "1 27445U 02030A   25360.28030918 -.00000132  00000+0  00000+0 0  9999", "line2": "2 27445   3.2955  80.3601 0000970  86.5436 294.1805  1.00271267 44760"}}, "geometry": {"type": "Point", "coordinates": [33.57021675542178, -2.398787372212891]}}, {"type": "Feature", "properties": {"norad_id": 27513, "name": "INTELSAT 906 (IS-906)", "group": "intelsat", "lat": 4.766458783503294, "lon": -167.45019796171061, "alt_km": 35783.635984981665, "timestamp": "2025-12-27T02:10:15.855449+00:00", "meta": {"OBJECT_NAME": "INTELSAT 906 (IS-906)", "OBJECT_ID": "2002-041A", "EPOCH": "2025-12-26T18:28:14.405088", "MEAN_MOTION": 1.00271072, "ECCENTRICITY": 0.0006168, "INCLINATION": 5.3657, "RA_OF_ASC_NODE": 75.0649, "ARG_OF_PERICENTER": 203.0067, "MEAN_ANOMALY": 158.6263, "EPHEMERIS_TYPE": 0, "CLASSIFICATION_TYPE": "U", "NORAD_CAT_ID": 27513, "ELEMENT_SET_NO": 999, "REV_AT_EPOCH": 8530, "BSTAR": 0, "MEAN_MOTION_DOT": 3.3e-07, "MEAN_MOTION_DDOT": 0}, "tle": {"line1": "1 27513U 02041A   25360.76961117  .00000033  00000+0  00000+0 0  9993", "line2": "2 27513   5.3657  75.0649 0006168 203.0067 158.6263  1.00271072 85303"}}, "geometry": {"type": "Point", "coordinates": [-167.45019796171061, 4.766458783503294]}}, {"type": "Feature", "properties": {"norad_id": 27954, "name": "GALAXY 13 (HORIZONS-1)", "group": "intelsat", "lat": -0.9365768630227715, "lon": -21.617645766113238, "alt_km": 35781.7613764295, "timestamp": "2025-12-27T02:10:15.855461+00:00", "meta": {"OBJECT_NAME": "GALAXY 13 (HORIZONS-1)", "OBJECT_ID": "2003-044A", "EPOCH": "2025-12-26T11:53:43.073088", "MEAN_MOTION": 1.00272501, "ECCENTRICITY": 0.0002299, "INCLINATION": 0.9724, "RA_OF_ASC_NODE": 86.2926, "ARG_OF_PERICENTER": 187.4398, "MEAN_ANOMALY": 209.9098, "EPHEMERIS_TYPE": 0, "CLASSIFICATION_TYPE": "U", "NORAD_CAT_ID": 27954, "ELEMENT_SET_NO": 999, "REV_AT_EPOCH": 4484, "BSTAR": 0, "MEAN_MOTION_DOT": 1.54e-06, "MEAN_MOTION_DDOT": 0}, "tle": {"line1": "1 27954U 03044A   25360.49563742  .00000154  00000+0  00000+0 0  9992", "line2": "2 27954   0.9724  86.2926 0002299 187.4398 209.9098  1.00272501 44841"}}, "geometry": {"type": "Point", "coordinates": [-21.617645766113238, -0.9365768630227715]}}, {"type": "Feature", "properties": {"norad_id": 28358, "name": "INTELSAT 10-02", "group": "intelsat", "lat": 0.03457613356483717, "lon": 127.42610085691574, "alt_km": 35791.613685984834, "timestamp": "2025-12-27T02:10:15.855474+00:00", "meta": {"OBJECT_NAME": "INTELSAT 10-02", "OBJECT_ID": "2004-022A", "EPOCH": "2025-12-26T08:51:38.739168", "MEAN_MOTION": 1.0027058, "ECCENTRICITY": 0.0001247, "INCLINATION": 0.0178, "RA_OF_ASC_NODE": 41.2908, "ARG_OF_PERICENTER": 258.9062, "MEAN_ANOMALY": 286.8755, "EPHEMERIS_TYPE": 0, "CLASSIFICATION_TYPE": "U", "NORAD_CAT_ID": 28358, "ELEMENT_SET_NO": 999, "REV_AT_EPOCH": 7882, "BSTAR": 0, "MEAN_MOTION_DOT": 1.1e-07, "MEAN_MOTION_DDOT": 0}, "tle": {"line1": "1 28358U 04022A   25360.36919837  .00000011  00000+0  00000+0 0  9996", "line2": "2 28358   0.0178  41.2908 0001247 258.9062 286.8755  1.00270580 78823"}}, "geometry": {"type": "Point", "coordinates": [127.42610085691574, 0.03457613356483717]}}, {"type": "Feature", "properties": {"norad_id": 28626, "name": "XM-3 (RHYTHM)", "group": "intelsat", "lat": 0.2135201523788752, "lon": 174.44901727254856, "alt_km": 36169.982415323495, "timestamp": "2025-12-27T02:10:15.855486+00:00", "meta": {"OBJECT_NAME": "XM-3 (RHYTHM)", "OBJECT_ID": "2005-008A", "EPOCH": "2025-12-26T04:42:51.380064", "MEAN_MOTION": 0.98950411, "ECCENTRICITY": 0.0002237, "INCLINATION": 0.2074, "RA_OF_ASC_NODE": 82.2895, "ARG_OF_PERICENTER": 272.1799, "MEAN_ANOMALY": 221.5061, "EPHEMERIS_TYPE": 0, "CLASSIFICATION_TYPE": "U", "NORAD_CAT_ID": 28626, "ELEMENT_SET_NO": 999, "REV_AT_EPOCH": 4088, "BSTAR": 0, "MEAN_MOTION_DOT": 8.6e-07, "MEAN_MOTION_DDOT": 0}, "tle": {"line1": "1 28626U 05008A   25360.19642801  .00000086  00000+0  00000+0 0  9996", "line2": "2 28626   0.2074  82.2895 0002237 272.1799 221.5061  0.98950411 40888"}}, "geometry": {"type": "Point", "coordinates": [174.44901727254856, 0.2135201523788752]}}]}